{
    "links": {
        "self": "http://www.neowsapp.com/rest/v1/neo/3714002?api_key=iIulBulltgU6a56xZRHN4H3l9WmuAYTsLGpBGhQ2"
    },
    "id": "3714002",
    "neo_reference_id": "3714002",
    "name": "(2015 FQ35)",
    "designation": "2015 FQ35",
    "nasa_jpl_url": "http://ssd.jpl.nasa.gov/sbdb.cgi?sstr=3714002",
    "absolute_magnitude_h": 25.6,
    "estimated_diameter": {
        "kilometers": {
            "estimated_diameter_min": 0.0201629919,
            "estimated_diameter_max": 0.0450858206
        },
        "meters": {
            "estimated_diameter_min": 20.1629919443,
            "estimated_diameter_max": 45.0858206172
        },
        "miles": {
            "estimated_diameter_min": 0.0125286985,
            "estimated_diameter_max": 0.0280150214
        },
        "feet": {
            "estimated_diameter_min": 66.1515504905,
            "estimated_diameter_max": 147.9193637137
        }
    },
    "is_potentially_hazardous_asteroid": false,
    "close_approach_data": [
        {
            "close_approach_date": "2015-03-17",
            "close_approach_date_full": "2015-Mar-17 02:25",
            "epoch_date_close_approach": 1426559100000,
            "relative_velocity": {
                "kilometers_per_second": "9.4408477683",
                "kilometers_per_hour": "33987.0519659812",
                "miles_per_hour": "21118.2323729732"
            },
            "miss_distance": {
                "astronomical": "0.0058074903",
                "lunar": "2.2591137267",
                "kilometers": "868788.178925661",
                "miles": "539839.9416736818"
            },
            "orbiting_body": "Earth"
        },
        {
            "close_approach_date": "2015-03-17",
            "close_approach_date_full": "2015-Mar-17 03:27",
            "epoch_date_close_approach": 1426562820000,
            "relative_velocity": {
                "kilometers_per_second": "10.4420059163",
                "kilometers_per_hour": "37591.221298856",
                "miles_per_hour": "23357.7230342809"
            },
            "miss_distance": {
                "astronomical": "0.007326532",
                "lunar": "2.850020948",
                "kilometers": "1096033.58168684",
                "miles": "681043.687244792"
            },
            "orbiting_body": "Moon"
        }
    ],
    "orbital_data": {
        "orbit_id": "6",
        "orbit_determination_date": "2017-04-06 08:34:54",
        "first_observation_date": "2015-03-22",
        "last_observation_date": "2015-03-29",
        "data_arc_in_days": 7,
        "observations_used": 40,
        "orbit_uncertainty": "8",
        "minimum_orbit_intersection": ".00318944",
        "jupiter_tisserand_invariant": "3.675",
        "epoch_osculation": "2457104.5",
        "eccentricity": ".5214606515098442",
        "semi_major_axis": "1.979037244355214",
        "inclination": "6.382516651711395",
        "ascending_node_longitude": "173.5081912721196",
        "orbital_period": "1016.902647590633",
        "perihelion_distance": ".9470471935514974",
        "perihelion_argument": "331.3074811547913",
        "aphelion_distance": "3.011027295158931",
        "perihelion_time": "2457074.338332375204",
        "mean_anomaly": "10.6777186298542",
        "mean_motion": ".3540161891140268",
        "equinox": "J2000",
        "orbit_class": {
            "orbit_class_type": "APO",
            "orbit_class_description": "Near-Earth asteroid orbits which cross the Earth’s orbit similar to that of 1862 Apollo",
            "orbit_class_range": "a (semi-major axis) > 1.0 AU; q (perihelion) < 1.017 AU"
        }
    },
    "is_sentry_object": false
}